IRIDIUM 116             
1 43072U 17083C   25012.53253451  .00000431  00000+0  14700-3 0  9995
2 43072  86.3998 179.6104 0002176  95.6293 264.5151 14.34220154369546
IRIDIUM 130             
1 43073U 17083D   25012.50082124  .00000158  00000+0  49334-4 0  9998
2 43073  86.4005 179.8478 0001921  98.4241 261.7172 14.34218960369481
IRIDIUM 151             
1 43074U 17083E   25012.54521899  .00000177  00000+0  56000-4 0  9999
2 43074  86.4001 179.6511 0002121  90.6191 269.5248 14.34216263369513
IRIDIUM 134             
1 43075U 17083F   25012.51350567  .00000217  00000+0  70509-4 0  9994
2 43075  86.4000 179.6650 0002067  96.0044 264.1387 14.34217631369473
IRIDIUM 137             
1 43076U 17083G   25012.52619307  .00000090  00000+0  25132-4 0  9997
2 43076  86.4004 179.7420 0002542  92.9165 267.2321 14.34218200369544
IRIDIUM 141             
1 43077U 17083H   25012.51985551  .00000542  00000+0  18665-3 0  9998
2 43077  86.3998 179.6050 0001683  89.0828 271.0560 14.34216461369547
IRIDIUM 153             
1 43078U 17083J   25012.40226306  .00000526  00000+0  18081-3 0  9997
2 43078  86.4009 148.1817 0001393  83.6326 276.5028 14.34220705370632
IRIDIUM 131             
1 43079U 17083K   25012.50716353  .00000380  00000+0  12877-3 0  9990
2 43079  86.4002 179.7613 0002006  88.7458 271.3967 14.34217767369473
